{
  "type": "FeatureCollection",
  "features": [
    {
      "type": "Feature",
      "properties": {
        "norad_id": 28051,
        "name": "IRS-P6 (RESOURCESAT-1)",
        "group": "resource",
        "lat": 81.75771103266251,
        "lon": -76.61486004637578,
        "alt_km": 787.7432311792709,
        "timestamp": "2025-12-02T06:27:52.677509+00:00",
        "meta_object_name": "IRS-P6 (RESOURCESAT-1)",
        "meta_object_id": "2003-046A",
        "meta_epoch": "2025-12-01T20:48:50.910624",
        "meta_mean_motion": 14.36065972,
        "meta_eccentricity": 0.0063564,
        "meta_inclination": 98.2194,
        "meta_ra_of_asc_node": 16.7774,
        "meta_arg_of_pericenter": 213.455,
        "meta_mean_anomaly": 320.1005,
        "meta_ephemeris_type": 0,
        "meta_classification_type": "U",
        "meta_norad_cat_id": 28051,
        "meta_element_set_no": 999,
        "meta_rev_at_epoch": 15220,
        "meta_bstar": 9.2634e-05,
        "meta_mean_motion_dot": 2.34e-06,
        "meta_mean_motion_ddot": 0,
        "tle_line1": "1 28051U 03046A   25335.86725591  .00000234  00000+0  92634-4 0  9996",
        "tle_line2": "2 28051  98.2194  16.7774 0063564 213.4550 320.1005 14.36065972152201"
      },
      "geometry": {
        "type": "Point",
        "coordinates": [
          -76.61486004637578,
          81.75771103266251
        ]
      }
    },
    {
      "type": "Feature",
      "properties": {
        "norad_id": 28220,
        "name": "SHIYAN-1 (SY-1)",
        "group": "resource",
        "lat": 70.94720493784786,
        "lon": -119.11245199725327,
        "alt_km": 476.79980908055495,
        "timestamp": "2025-12-02T06:27:52.677520+00:00",
        "meta_object_name": "SHIYAN-1 (SY-1)",
        "meta_object_id": "2004-012A",
        "meta_epoch": "2025-12-01T17:25:15.174912",
        "meta_mean_motion": 15.27700086,
        "meta_eccentricity": 0.0006423,
        "meta_inclination": 97.8959,
        "meta_ra_of_asc_node": 36.6177,
        "meta_arg_of_pericenter": 6.0937,
        "meta_mean_anomaly": 354.0378,
        "meta_ephemeris_type": 0,
        "meta_classification_type": "U",
        "meta_norad_cat_id": 28220,
        "meta_element_set_no": 999,
        "meta_rev_at_epoch": 18088,
        "meta_bstar": 0.00050712,
        "meta_mean_motion_dot": 0.00013664,
        "meta_mean_motion_ddot": 0,
        "tle_line1": "1 28220U 04012A   25335.72587008  .00013664  00000+0  50712-3 0  9993",
        "tle_line2": "2 28220  97.8959  36.6177 0006423   6.0937 354.0378 15.27700086180884"
      },
      "geometry": {
        "type": "Point",
        "coordinates": [
          -119.11245199725327,
          70.94720493784786
        ]
      }
    },
    {
      "type": "Feature",
      "properties": {
        "norad_id": 28376,
        "name": "AURA",
        "group": "resource",
        "lat": 37.150304860509145,
        "lon": 112.81170916530992,
        "alt_km": 687.1425535318913,
        "timestamp": "2025-12-02T06:27:52.677531+00:00",
        "meta_object_name": "AURA",
        "meta_object_id": "2004-026A",
        "meta_epoch": "2025-12-01T19:57:10.045728",
        "meta_mean_motion": 14.60903177,
        "meta_eccentricity": 0.0001064,
        "meta_inclination": 98.3168,
        "meta_ra_of_asc_node": 286.0085,
        "meta_arg_of_pericenter": 89.7907,
        "meta_mean_anomaly": 270.3415,
        "meta_ephemeris_type": 0,
        "meta_classification_type": "U",
        "meta_norad_cat_id": 28376,
        "meta_element_set_no": 999,
        "meta_rev_at_epoch": 13739,
        "meta_bstar": 0.00026623,
        "meta_mean_motion_dot": 1.255e-05,
        "meta_mean_motion_ddot": 0,
        "tle_line1": "1 28376U 04026A   25335.83136627  .00001255  00000+0  26623-3 0  9996",
        "tle_line2": "2 28376  98.3168 286.0085 0001064  89.7907 270.3415 14.60903177137396"
      },
      "geometry": {
        "type": "Point",
        "coordinates": [
          112.81170916530992,
          37.150304860509145
        ]
      }
    },
    {
      "type": "Feature",
      "properties": {
        "norad_id": 28649,
        "name": "IRS-P5 (CARTOSAT-1)",
        "group": "resource",
        "lat": -32.34309140311906,
        "lon": 7.965744780776328,
        "alt_km": 602.8977259953772,
        "timestamp": "2025-12-02T06:27:52.677542+00:00",
        "meta_object_name": "IRS-P5 (CARTOSAT-1)",
        "meta_object_id": "2005-017A",
        "meta_epoch": "2025-12-01T16:06:30.814272",
        "meta_mean_motion": 14.90341171,
        "meta_eccentricity": 0.0001861,
        "meta_inclination": 97.551,
        "meta_ra_of_asc_node": 2.5757,
        "meta_arg_of_pericenter": 54.407,
        "meta_mean_anomaly": 305.7322,
        "meta_ephemeris_type": 0,
        "meta_classification_type": "U",
        "meta_norad_cat_id": 28649,
        "meta_element_set_no": 999,
        "meta_rev_at_epoch": 11439,
        "meta_bstar": 0.00017586,
        "meta_mean_motion_dot": 1.658e-05,
        "meta_mean_motion_ddot": 0,
        "tle_line1": "1 28649U 05017A   25335.67118998  .00001658  00000+0  17586-3 0  9998",
        "tle_line2": "2 28649  97.5510   2.5757 0001861  54.4070 305.7322 14.90341171114391"
      },
      "geometry": {
        "type": "Point",
        "coordinates": [
          7.965744780776328,
          -32.34309140311906
        ]
      }
    },
    {
      "type": "Feature",
      "properties": {
        "norad_id": 28893,
        "name": "SINAH 1",
        "group": "resource",
        "lat": -54.18950723042115,
        "lon": -86.81609479310188,
        "alt_km": 683.3162862767576,
        "timestamp": "2025-12-02T06:27:52.677553+00:00",
        "meta_object_name": "SINAH 1",
        "meta_object_id": "2005-043D",
        "meta_epoch": "2025-12-01T19:33:11.177280",
        "meta_mean_motion": 14.63941601,
        "meta_eccentricity": 0.0014727,
        "meta_inclination": 98.2598,
        "meta_ra_of_asc_node": 104.3433,
        "meta_arg_of_pericenter": 169.9302,
        "meta_mean_anomaly": 190.2198,
        "meta_ephemeris_type": 0,
        "meta_classification_type": "U",
        "meta_norad_cat_id": 28893,
        "meta_element_set_no": 999,
        "meta_rev_at_epoch": 7164,
        "meta_bstar": 0.00011837,
        "meta_mean_motion_dot": 5.71e-06,
        "meta_mean_motion_ddot": 0,
        "tle_line1": "1 28893U 05043D   25335.81471270  .00000571  00000+0  11837-3 0  9995",
        "tle_line2": "2 28893  98.2598 104.3433 0014727 169.9302 190.2198 14.63941601 71645"
      },
      "geometry": {
        "type": "Point",
        "coordinates": [
          -86.81609479310188,
          -54.18950723042115
        ]
      }
    },
    {
      "type": "Feature",
      "properties": {
        "norad_id": 29079,
        "name": "EROS B",
        "group": "resource",
        "lat": -4.681899191339712,
        "lon": 92.98124914813052,
        "alt_km": 380.098558429273,
        "timestamp": "2025-12-02T06:27:52.677564+00:00",
        "meta_object_name": "EROS B",
        "meta_object_id": "2006-014A",
        "meta_epoch": "2025-12-01T21:16:21.616320",
        "meta_mean_motion": 15.64149688,
        "meta_eccentricity": 0.0002594,
        "meta_inclination": 97.3487,
        "meta_ra_of_asc_node": 91.9768,
        "meta_arg_of_pericenter": 233.2165,
        "meta_mean_anomaly": 126.8856,
        "meta_ephemeris_type": 0,
        "meta_classification_type": "U",
        "meta_norad_cat_id": 29079,
        "meta_element_set_no": 999,
        "meta_rev_at_epoch": 8910,
        "meta_bstar": 0.0014298,
        "meta_mean_motion_dot": 0.00137505,
        "meta_mean_motion_ddot": 0,
        "tle_line1": "1 29079U 06014A   25335.88636130  .00137505  00000+0  14298-2 0  9997",
        "tle_line2": "2 29079  97.3487  91.9768 0002594 233.2165 126.8856 15.64149688 89105"
      },
      "geometry": {
        "type": "Point",
        "coordinates": [
          92.98124914813052,
          -4.681899191339712
        ]
      }
    },
    {
      "type": "Feature",
      "properties": {
        "norad_id": 29228,
        "name": "RESURS-DK 1",
        "group": "resource",
        "lat": 49.14930991690014,
        "lon": -76.11492594962729,
        "alt_km": 528.9850070418943,
        "timestamp": "2025-12-02T06:27:52.677574+00:00",
        "meta_object_name": "RESURS-DK 1",
        "meta_object_id": "2006-021A",
        "meta_epoch": "2025-12-01T20:22:52.938048",
        "meta_mean_motion": 15.12058271,
        "meta_eccentricity": 0.0007821,
        "meta_inclination": 69.9322,
        "meta_ra_of_asc_node": 129.9787,
        "meta_arg_of_pericenter": 266.5808,
        "meta_mean_anomaly": 93.4463,
        "meta_ephemeris_type": 0,
        "meta_classification_type": "U",
        "meta_norad_cat_id": 29228,
        "meta_element_set_no": 999,
        "meta_rev_at_epoch": 7273,
        "meta_bstar": 0.00020679,
        "meta_mean_motion_dot": 3.46e-05,
        "meta_mean_motion_ddot": 0,
        "tle_line1": "1 29228U 06021A   25335.84922382  .00003460  00000+0  20679-3 0  9997",
        "tle_line2": "2 29228  69.9322 129.9787 0007821 266.5808  93.4463 15.12058271 72732"
      },
      "geometry": {
        "type": "Point",
        "coordinates": [
          -76.11492594962729,
          49.14930991690014
        ]
      }
    }
  ]
}